OBJECT_NAME,OBJECT_ID,EPOCH,MEAN_MOTION,ECCENTRICITY,INCLINATION,RA_OF_ASC_NODE,ARG_OF_PERICENTER,MEAN_ANOMALY,EPHEMERIS_TYPE,CLASSIFICATION_TYPE,NORAD_CAT_ID,ELEMENT_SET_NO,REV_AT_EPOCH,BSTAR,MEAN_MOTION_DOT,MEAN_MOTION_DDOT
STARLINK-5639,2023-013AL,2026-06-30T00:14:04.026048,15.27580152,.00010429,43.0055,46.9926,236.9417,123.1335,0,U,55365,999,18864,.27874992E-4,.505E-5,0
STARLINK-5654,2023-013AM,2026-06-29T22:36:31.550112,15.27577253,.00012756,43.0042,14.5250,267.5223,92.5483,0,U,55366,999,18901,.48678905E-4,.1077E-4,0
STARLINK-5635,2023-013AN,2026-06-30T13:35:44.215872,15.27575613,.00013206,43.0048,11.4576,273.6409,86.4292,0,U,55367,999,18910,.28508375E-4,.522E-5,0
STARLINK-5625,2023-013AP,2026-06-30T14:21:47.286144,15.27579519,.00018445,43.0039,10.8496,275.8106,84.2536,0,U,55368,999,18911,.41171689E-4,.871E-5,0
STARLINK-5644,2023-013AQ,2026-06-30T14:15:56.787264,15.27566817,.00014438,43.0063,43.6376,264.3331,95.7356,0,U,55369,999,18873,-.10579639E-4,-.553E-5,0
STARLINK-5027,2023-013AR,2026-06-30T14:30:44.847072,15.27579052,.00020549,43.0063,43.7221,277.4268,82.6351,0,U,55370,999,18873,.11763479E-3,.2976E-4,0
STARLINK-5590,2023-013AS,2026-06-29T22:28:48.939456,15.27571801,.0001899,43.0069,47.3034,278.7947,81.2690,0,U,55371,999,18955,.25962853E-4,.452E-5,0
STARLINK-5568,2023-013AT,2026-06-29T22:01:59.956320,15.27558761,.00009744,43.0043,44.5983,252.6718,107.4027,0,U,55372,999,18866,-.71142219E-4,-.2218E-4,0
STARLINK-5581,2023-013AU,2026-06-29T23:40:59.459520,15.27570144,.00010045,43.0036,47.6640,248.5906,111.4838,0,U,55373,999,18863,.16047094E-4,.179E-5,0
STARLINK-5578,2023-013AV,2026-06-29T23:37:16.545792,15.27581630,.00010906,43.0028,47.6522,242.0425,118.0317,0,U,55374,999,18863,-.6363195E-5,-.437E-5,0
STARLINK-5588,2023-013AW,2026-06-30T14:41:49.564608,15.27576305,.00012451,43.0107,43.7733,253.9587,106.1128,0,U,55375,999,18873,-.691888E-6,-.281E-5,0
STARLINK-5586,2023-013AX,2026-06-30T13:30:11.380608,15.27575600,.00011488,43.0051,11.4297,269.5184,90.5536,0,U,55376,999,18910,.8072337E-5,-.4E-6,0
STARLINK-5567,2023-013AY,2026-06-29T21:56:25.642752,15.27585132,.00008467,43.0035,44.5629,258.9846,101.0911,0,U,55377,999,18866,-.47137959E-4,-.1559E-4,0
STARLINK-5572,2023-013AZ,2026-06-29T22:25:06.523392,15.27576528,.00014982,43.0033,47.2805,280.5083,79.5600,0,U,55378,999,18863,.7530463E-5,-.55E-6,0
STARLINK-5569,2023-013BA,2026-06-29T23:21:18.404352,15.27637708,.00013251,43.0028,44.1465,225.3872,134.6872,0,U,55379,999,18867,-.43229601E-3,-.1216E-3,0
STARLINK-5571,2023-013BB,2026-06-30T00:32:35.185344,15.21067034,.00010693,43.0007,32.1348,280.7791,79.2938,0,U,55380,999,18881,.13831112E-2,.31212E-3,0
STARLINK-5575,2023-013BC,2026-06-29T23:32:25.814112,15.27577542,.00012083,43.0034,44.2028,271.4865,88.5848,0,U,55381,999,18867,.4607828E-5,-.135E-5,0
STARLINK-5576,2023-013BD,2026-06-29T23:26:52.763712,15.27577112,.00012253,43.0033,44.1780,266.4232,93.6480,0,U,55382,999,18867,.360938E-5,-.163E-5,0
STARLINK-5531,2023-013BE,2026-06-28T23:33:46.737216,15.27574055,.00017083,43.0041,20.2016,238.9880,121.0804,0,U,55383,999,18886,.25622508E-4,.443E-5,0
STARLINK-5537,2023-013BF,2026-06-29T23:15:44.489088,15.27600154,.00012468,43.0021,44.1243,261.9415,98.1295,0,U,55384,999,18867,.11587668E-3,.293E-4,0
STARLINK-5556,2023-013BG,2026-06-29T23:25:02.063712,15.27587419,.00011148,43.0026,44.1608,283.0998,76.9729,0,U,55385,999,18867,.72139095E-4,.1724E-4,0
STARLINK-5555,2023-013BH,2026-06-29T23:37:58.930176,15.27575720,.00009861,43.0039,44.2305,264.5332,95.5407,0,U,55386,999,18867,.1490339E-4,.148E-5,0
STARLINK-5085,2023-014B,2026-06-30T06:17:23.997984,14.98353752,.00034103,69.9999,120.5114,260.9822,99.0951,0,U,55392,999,18941,.25124215E-3,.2908E-4,0
STARLINK-4786,2023-014C,2026-06-30T06:47:48.399648,14.98329864,.00036459,70.0001,140.4659,262.3570,97.7175,0,U,55393,999,18892,.25304708E-4,.209E-5,0
STARLINK-5274,2023-014E,2026-06-30T06:35:47.370048,14.98330684,.00031394,69.9998,140.4163,273.9326,86.1474,0,U,55395,999,18892,.1971997E-5,-.69E-6,0
STARLINK-5283,2023-014F,2026-06-30T06:41:49.436160,14.98328430,.00038679,70.0000,140.4409,258.9139,101.1585,0,U,55396,999,18892,.65284571E-4,.686E-5,0
STARLINK-5224,2023-014G,2026-06-30T05:47:25.016064,14.98340033,.00030313,69.9999,120.8255,272.0705,88.0107,0,U,55397,999,18940,.923953E-5,.17E-6,0
STARLINK-5275,2023-014H,2026-06-30T07:05:50.096544,14.98332235,.00038099,69.9998,140.4978,262.5803,97.4924,0,U,55398,999,18892,.58767891E-4,.608E-5,0
STARLINK-5276,2023-014J,2026-06-30T06:53:48.826752,14.98331534,.00034854,69.9999,140.4682,266.3119,93.7642,0,U,55399,999,18892,.4658625E-4,.463E-5,0
STARLINK-5632,2023-014K,2026-06-30T07:17:51.880416,14.98333473,.00036932,69.9997,140.5221,270.0701,90.0035,0,U,55400,999,18892,.7893572E-4,.849E-5,0
