STARLINK-5639           
1 55365U 23013AL  26181.00976882  .00000505  00000+0  27875-4 0  9993
2 55365  43.0055  46.9926 0001042 236.9417 123.1335 15.27580152188649
STARLINK-5654           
1 55366U 23013AM  26180.94203183  .00001077  00000+0  48679-4 0  9993
2 55366  43.0042  14.5250 0001275 267.5223  92.5483 15.27577253189013
STARLINK-5635           
1 55367U 23013AN  26181.56648398  .00000522  00000+0  28508-4 0  9997
2 55367  43.0048  11.4576 0001320 273.6409  86.4292 15.27575613189100
STARLINK-5625           
1 55368U 23013AP  26181.59846396  .00000871  00000+0  41172-4 0  9998
2 55368  43.0039  10.8496 0001844 275.8106  84.2536 15.27579519189111
STARLINK-5644           
1 55369U 23013AQ  26181.59440726 -.00000553  00000+0 -10580-4 0  9994
2 55369  43.0063  43.6376 0001443 264.3331  95.7356 15.27566817188739
STARLINK-5027           
1 55370U 23013AR  26181.60468573  .00002976  00000+0  11763-3 0  9990
2 55370  43.0063  43.7221 0002054 277.4268  82.6351 15.27579052188739
STARLINK-5590           
1 55371U 23013AS  26180.93667754  .00000452  00000+0  25963-4 0  9993
2 55371  43.0069  47.3034 0001899 278.7947  81.2690 15.27571801189558
STARLINK-5568           
1 55372U 23013AT  26180.91805505 -.00002218  00000+0 -71142-4 0  9994
2 55372  43.0043  44.5983 0000974 252.6718 107.4027 15.27558761188669
STARLINK-5581           
1 55373U 23013AU  26180.98679930  .00000179  00000+0  16047-4 0  9998
2 55373  43.0036  47.6640 0001004 248.5906 111.4838 15.27570144188635
STARLINK-5578           
1 55374U 23013AV  26180.98421928 -.00000437  00000+0 -63632-5 0  9993
2 55374  43.0028  47.6522 0001090 242.0425 118.0317 15.27581630188633
STARLINK-5588           
1 55375U 23013AW  26181.61237922 -.00000281  00000+0 -69189-6 0  9995
2 55375  43.0107  43.7733 0001245 253.9587 106.1128 15.27576305188737
STARLINK-5586           
1 55376U 23013AX  26181.56263172 -.00000040  00000+0  80723-5 0  9994
2 55376  43.0051  11.4297 0001148 269.5184  90.5536 15.27575600189109
STARLINK-5567           
1 55377U 23013AY  26180.91418568 -.00001559  00000+0 -47138-4 0  9993
2 55377  43.0035  44.5629 0000846 258.9846 101.0911 15.27585132188665
STARLINK-5572           
1 55378U 23013AZ  26180.93410328 -.00000055  00000+0  75305-5 0  9999
2 55378  43.0033  47.2805 0001498 280.5083  79.5600 15.27576528188638
STARLINK-5569           
1 55379U 23013BA  26180.97312968 -.00012160  00000+0 -43230-3 0  9996
2 55379  43.0028  44.1465 0001325 225.3872 134.6872 15.27637708188679
STARLINK-5571           
1 55380U 23013BB  26181.02262946  .00031212  00000+0  13831-2 0  9995
2 55380  43.0007  32.1348 0001069 280.7791  79.2938 15.21067034188811
STARLINK-5575           
1 55381U 23013BC  26180.98085433 -.00000135  00000+0  46078-5 0  9997
2 55381  43.0034  44.2028 0001208 271.4865  88.5848 15.27577542188678
STARLINK-5576           
1 55382U 23013BD  26180.97699958 -.00000163  00000+0  36094-5 0  9998
2 55382  43.0033  44.1780 0001225 266.4232  93.6480 15.27577112188675
STARLINK-5531           
1 55383U 23013BE  26179.98179094  .00000443  00000+0  25623-4 0  9997
2 55383  43.0041  20.2016 0001708 238.9880 121.0804 15.27574055188861
STARLINK-5537           
1 55384U 23013BF  26180.96926492  .00002930  00000+0  11588-3 0  9997
2 55384  43.0021  44.1243 0001246 261.9415  98.1295 15.27600154188671
STARLINK-5556           
1 55385U 23013BG  26180.97571833  .00001724  00000+0  72139-4 0  9994
2 55385  43.0026  44.1608 0001114 283.0998  76.9729 15.27587419188671
STARLINK-5555           
1 55386U 23013BH  26180.98470984  .00000148  00000+0  14903-4 0  9995
2 55386  43.0039  44.2305 0000986 264.5332  95.5407 15.27575720188675
STARLINK-5085           
1 55392U 23014B   26181.26208331  .00002908  00000+0  25124-3 0  9992
2 55392  69.9999 120.5114 0003410 260.9822  99.0951 14.98353752189411
STARLINK-4786           
1 55393U 23014C   26181.28319907  .00000209  00000+0  25305-4 0  9991
2 55393  70.0001 140.4659 0003645 262.3570  97.7175 14.98329864188925
STARLINK-5274           
1 55395U 23014E   26181.27485382 -.00000069  00000+0  19720-5 0  9993
2 55395  69.9998 140.4163 0003139 273.9326  86.1474 14.98330684188920
STARLINK-5283           
1 55396U 23014F   26181.27904440  .00000686  00000+0  65285-4 0  9995
2 55396  70.0000 140.4409 0003867 258.9139 101.1585 14.98328430188921
STARLINK-5224           
1 55397U 23014G   26181.24126176  .00000017  00000+0  92395-5 0  9996
2 55397  69.9999 120.8255 0003031 272.0705  88.0107 14.98340033189406
STARLINK-5275           
1 55398U 23014H   26181.29571871  .00000608  00000+0  58768-4 0  9999
2 55398  69.9998 140.4978 0003809 262.5803  97.4924 14.98332235188924
STARLINK-5276           
1 55399U 23014J   26181.28737068  .00000463  00000+0  46586-4 0  9995
2 55399  69.9999 140.4682 0003485 266.3119  93.7642 14.98331534188927
STARLINK-5632           
1 55400U 23014K   26181.30407269  .00000849  00000+0  78936-4 0  9990
2 55400  69.9997 140.5221 0003693 270.0701  90.0035 14.98333473188928
